NORAD_CAT_ID,OBJECT_NAME,OBJECT_TYPE,EPOCH,MEAN_MOTION,ECCENTRICITY,INCLINATION,RA_OF_ASC_NODE,ARG_OF_PERICENTER,MEAN_ANOMALY,BSTAR,MEAN_MOTION_DOT,MEAN_MOTION_DDOT,TLE_LINE0,TLE_LINE1,TLE_LINE2,SEMIMAJOR_AXIS,PERIOD,APOGEE,PERIGEE,DECAYED
52312.0,STARLINK-3752,PAYLOAD,2023-04-12 11:53:16,15.0884347,0.0001263,53.2153,177.4419,83.4375,276.6761,-6.5381e-05,-1.328e-05,0.0,0 STARLINK-3752,1 52312U 22041BD  23102.49532523 -.00001328  00000-0 -65381-4 0  9996,2 52312  53.2153 177.4419 0001263  83.4375 276.6761 15.08843470 55510,6917.87,95.437,540.609,538.861,0.0
52312.0,STARLINK-3752,PAYLOAD,2023-04-13 10:08:40,15.08838549,0.0001208,53.2163,173.2801,85.0388,275.0742,-1.2811e-05,-4.92e-06,0.0,0 STARLINK-3752,1 52312U 22041BD  23103.42268896 -.00000492  00000-0 -12811-4 0  9990,2 52312  53.2163 173.2801 0001208  85.0388 275.0742 15.08838549 55659,6917.885,95.438,540.586,538.914,0.0
52312.0,STARLINK-3752,PAYLOAD,2023-04-14 09:59:27,15.08835986,0.0001339,53.2178,168.8203,96.7282,263.3862,0.00010644,1.406e-05,0.0,0 STARLINK-3752,1 52312U 22041BD  23104.41629485  .00001406  00000-0  10644-3 0  9990,2 52312  53.2178 168.8203 0001339  96.7282 263.3862 15.08835986 55800,6917.893,95.438,540.684,538.831,0.0
52312.0,STARLINK-3752,PAYLOAD,2023-04-14 13:10:13,15.08839669,0.0001404,53.2182,168.2258,99.0584,261.0567,0.00013701,1.893e-05,0.0,0 STARLINK-3752,1 52312U 22041BD  23104.54877240  .00001893  00000-0  13701-3 0  9995,2 52312  53.2182 168.2258 0001404  99.0584 261.0567 15.08839669 55824,6917.881,95.438,540.718,538.775,0.0
52312.0,STARLINK-3752,PAYLOAD,2023-04-15 13:01:00,15.08842535,0.0001406,53.2164,163.7644,78.806,281.309,0.00011617,1.562e-05,0.0,0 STARLINK-3752,1 52312U 22041BD  23105.54237263  .00001562  00000-0  11617-3 0  9998,2 52312  53.2164 163.7644 0001406  78.8060 281.3090 15.08842535 55977,6917.873,95.437,540.71,538.765,0.0
52312.0,STARLINK-3752,PAYLOAD,2023-04-15 20:57:56,15.0883002,1.59e-05,53.2169,162.2796,55.4208,304.6799,-7.0697e-05,-1.412e-05,0.0,0 STARLINK-3752,1 52312U 22041BD  23105.87357473 -.00001412  00000-0 -70697-4 0  9990,2 52312  53.2169 162.2796 0000159  55.4208 304.6799 15.08830020 56021,6917.911,95.438,539.886,539.666,0.0
52312.0,STARLINK-3752,PAYLOAD,2023-04-16 11:16:25,15.08844128,0.0001268,53.2163,159.6028,68.224,291.8887,7.0474e-05,8.34e-06,0.0,0 STARLINK-3752,1 52312U 22041BD  23106.46973445  .00000834  00000-0  70474-4 0  9997,2 52312  53.2163 159.6028 0001268  68.2240 291.8887 15.08844128 56112,6917.868,95.437,540.61,538.856,0.0
52312.0,STARLINK-3752,PAYLOAD,2023-04-16 20:48:43,15.08832018,3.43e-05,53.2174,157.8189,6.6542,353.4454,-0.00010585,-1.971e-05,0.0,0 STARLINK-3752,1 52312U 22041BD  23106.86717406 -.00001971  00000-0 -10585-3 0  9995,2 52312  53.2174 157.8189 0000343   6.6542 353.4454 15.08832018 56172,6917.905,95.438,540.007,539.533,0.0
52312.0,STARLINK-3752,PAYLOAD,2023-04-17 03:10:17,15.08830458,0.0001043,53.2169,156.6266,71.1596,288.9509,-2.7182e-05,-7.2e-06,0.0,0 STARLINK-3752,1 52312U 22041BD  23107.13214193 -.00000720  00000-0 -27182-4 0  9994,2 52312  53.2169 156.6266 0001043  71.1596 288.9509 15.08830458 56217,6917.91,95.438,540.496,539.053,0.0
52312.0,STARLINK-3752,PAYLOAD,2023-04-17 12:42:35,15.08845608,0.0001205,53.2152,154.843,63.6916,296.42,0.00025268,3.736e-05,0.0,0 STARLINK-3752,1 52312U 22041BD  23107.52957608  .00003736  00000-0  25268-3 0  9992,2 52312  53.2152 154.8430 0001205  63.6916 296.4200 15.08845608 56275,6917.863,95.437,540.562,538.895,0.0
52312.0,STARLINK-3752,PAYLOAD,2023-04-17 20:39:31,15.08842678,0.0001439,53.2152,153.358,64.1368,295.9772,0.00028424,4.239e-05,0.0,0 STARLINK-3752,1 52312U 22041BD  23107.86077951  .00004239  00000-0  28424-3 0  9999,2 52312  53.2152 153.3580 0001439  64.1368 295.9772 15.08842678 56329,6917.872,95.437,540.733,538.742,0.0
52312.0,STARLINK-3752,PAYLOAD,2023-04-18 09:22:36,15.08846199,0.0001479,53.2151,150.9786,64.1976,295.9168,0.00032482,4.886e-05,0.0,0 STARLINK-3752,1 52312U 22041BD  23108.39069914  .00004886  00000-0  32482-3 0  9995,2 52312  53.2151 150.9786 0001479  64.1976 295.9168 15.08846199 56408,6917.861,95.437,540.75,538.703,0.0
52312.0,STARLINK-3752,PAYLOAD,2023-04-18 14:08:45,15.08854452,0.0001443,53.2154,150.0859,69.4394,290.6753,0.000509,7.825e-05,0.0,0 STARLINK-3752,1 52312U 22041BD  23108.58941608  .00007825  00000-0  50900-3 0  9996,2 52312  53.2154 150.0859 0001443  69.4394 290.6753 15.08854452 56432,6917.836,95.437,540.699,538.703,0.0
52312.0,STARLINK-3752,PAYLOAD,2023-04-19 02:51:50,15.08843694,0.0001397,53.2146,147.7074,71.7495,288.3649,0.00018882,2.719e-05,0.0,0 STARLINK-3752,1 52312U 22041BD  23109.11933877  .00002719  00000-0  18882-3 0  9995,2 52312  53.2146 147.7074 0001397  71.7495 288.3649 15.08843694 56514,6917.869,95.437,540.701,538.768,0.0
52312.0,STARLINK-3752,PAYLOAD,2023-04-19 07:38:00,15.088441,0.0001385,53.2153,146.8153,71.6215,288.4928,0.00019248,2.777e-05,0.0,0 STARLINK-3752,1 52312U 22041BD  23109.31805906  .00002777  00000-0  19248-3 0  9999,2 52312  53.2153 146.8153 0001385  71.6215 288.4928 15.08844100 56543,6917.868,95.437,540.691,538.775,0.0
52312.0,STARLINK-3752,PAYLOAD,2023-04-19 13:59:32,15.08849259,0.0001447,53.2151,145.6247,78.3278,281.7876,0.00028491,4.25e-05,0.0,0 STARLINK-3752,1 52312U 22041BD  23109.58301662  .00004250  00000-0  28491-3 0  9996,2 52312  53.2151 145.6247 0001447  78.3278 281.7876 15.08849259 56586,6917.852,95.437,540.718,538.716,0.0
52312.0,STARLINK-3752,PAYLOAD,2023-04-20 02:42:38,15.08841528,0.0002024,53.2149,143.2431,93.3665,266.7558,0.00012163,1.648e-05,0.0,0 STARLINK-3752,1 52312U 22041BD  23110.11294023  .00001648  00000-0  12163-3 0  9996,2 52312  53.2149 143.2431 0002024  93.3665 266.7558 15.08841528 56661,6917.876,95.437,541.141,538.341,0.0
52312.0,STARLINK-3752,PAYLOAD,2023-04-20 07:28:47,15.08839029,0.0001417,53.2152,142.3519,97.12,262.9954,8.9346e-05,1.134e-05,0.0,0 STARLINK-3752,1 52312U 22041BD  23110.31165943  .00001134  00000-0  89346-4 0  9994,2 52312  53.2152 142.3519 0001417  97.1200 262.9954 15.08839029 56698,6917.883,95.438,540.729,538.768,0.0
52312.0,STARLINK-3752,PAYLOAD,2023-04-20 18:36:29,15.08833185,7.28e-05,53.2155,140.2732,110.532,249.575,-8.295e-05,-1.607e-05,0.0,0 STARLINK-3752,1 52312U 22041BD  23110.77534052 -.00001607  00000-0 -82950-4 0  9996,2 52312  53.2155 140.2732 0000728 110.5320 249.5750 15.08833185 56762,6917.901,95.438,540.27,539.263,0.0
52312.0,STARLINK-3752,PAYLOAD,2023-04-21 10:30:21,15.08839207,0.0001283,53.2148,137.2984,95.9822,264.1317,0.00013819,1.912e-05,0.0,0 STARLINK-3752,1 52312U 22041BD  23111.43774321  .00001912  00000-0  13819-3 0  9999,2 52312  53.2148 137.2984 0001283  95.9822 264.1317 15.08839207 56863,6917.883,95.438,540.635,538.86,0.0
52312.0,STARLINK-3752,PAYLOAD,2023-04-21 18:27:16,15.08840507,0.000125,53.2148,135.8117,92.9055,267.2081,0.00025105,3.71e-05,0.0,0 STARLINK-3752,1 52312U 22041BD  23111.76894423  .00003710  00000-0  25105-3 0  9990,2 52312  53.2148 135.8117 0001250  92.9055 267.2081 15.08840507 56917,6917.879,95.438,540.609,538.879,0.0
52312.0,STARLINK-3752,PAYLOAD,2023-04-22 02:24:12,15.08845485,0.0001173,53.2148,134.3247,97.3684,262.7441,0.0003315,4.993e-05,0.0,0 STARLINK-3752,1 52312U 22041BD  23112.10014339  .00004993  00000-0  33150-3 0  9992,2 52312  53.2148 134.3247 0001173  97.3684 262.7441 15.08845485 56961,6917.864,95.437,540.54,538.917,0.0
52312.0,STARLINK-3752,PAYLOAD,2023-04-22 18:18:03,15.08844426,0.0001285,53.2145,131.3525,90.0932,270.0207,0.00020527,2.981e-05,0.0,0 STARLINK-3752,1 52312U 22041BD  23112.76254306  .00002981  00000-0  20527-3 0  9993,2 52312  53.2145 131.3525 0001285  90.0932 270.0207 15.08844426 57062,6917.867,95.437,540.621,538.843,0.0
52312.0,STARLINK-3752,PAYLOAD,2023-04-23 10:11:55,15.08840304,0.0001407,53.2145,128.3773,88.9955,271.1198,9.6523e-05,1.249e-05,0.0,0 STARLINK-3752,1 52312U 22041BD  23113.42494425  .00001249  00000-0  96523-4 0  9991,2 52312  53.2145 128.3773 0001407  88.9955 271.1198 15.08840304 57163,6917.879,95.438,540.718,538.771,0.0
52312.0,STARLINK-3752,PAYLOAD,2023-04-23 13:22:41,15.08841335,0.0001362,53.2148,127.7825,89.9641,270.1507,0.00010709,1.417e-05,0.0,0 STARLINK-3752,1 52312U 22041BD  23113.55742442  .00001417  00000-0  10709-3 0  9998,2 52312  53.2148 127.7825 0001362  89.9641 270.1507 15.08841335 57180,6917.876,95.437,540.684,538.799,0.0
52312.0,STARLINK-3752,PAYLOAD,2023-04-24 10:02:41,15.08862966,0.0001465,53.2154,123.916,88.5129,271.6031,0.00055695,8.593e-05,0.0,0 STARLINK-3752,1 52312U 22041BD  23114.41853861  .00008593  00000-0  55695-3 0  9997,2 52312  53.2154 123.9160 0001465  88.5129 271.6031 15.08862966 57313,6917.81,95.436,540.689,538.662,0.0
52312.0,STARLINK-3752,PAYLOAD,2023-04-25 11:28:52,15.08838286,0.0001694,53.2171,119.1555,102.3783,257.7399,3.5775e-05,2.81e-06,0.0,0 STARLINK-3752,1 52312U 22041BD  23115.47838610  .00000281  00000-0  35775-4 0  9993,2 52312  53.2171 119.1555 0001694 102.3783 257.7399 15.08838286 57479,6917.886,95.438,540.923,538.579,0.0
52312.0,STARLINK-3752,PAYLOAD,2023-04-26 11:19:39,15.08850911,0.0001578,53.2172,114.6971,98.7613,261.3558,-0.00027829,-4.716e-05,0.0,0 STARLINK-3752,1 52312U 22041BD  23116.47198994 -.00004716  00000-0 -27829-3 0  9997,2 52312  53.2172 114.6971 0001578  98.7613 261.3558 15.08850911 57627,6917.847,95.437,540.804,538.62,0.0
52312.0,STARLINK-3752,PAYLOAD,2023-04-27 04:48:57,15.08801163,0.0001191,53.217,111.4275,113.8792,246.2325,-0.0002093,-3.614e-05,0.0,0 STARLINK-3752,1 52312U 22041BD  23117.20067127 -.00003614  00000-0 -20930-3 0  9994,2 52312  53.2170 111.4275 0001191 113.8792 246.2325 15.08801163 57736,6917.999,95.44,540.688,539.04,0.0
52312.0,STARLINK-3752,PAYLOAD,2023-04-27 11:10:31,15.08789913,8.99e-05,53.2165,110.2395,100.59,259.5194,-0.00022665,-3.888e-05,0.0,0 STARLINK-3752,1 52312U 22041BD  23117.46564656 -.00003888  00000-0 -22665-3 0  9991,2 52312  53.2165 110.2395 0000899 100.5900 259.5194 15.08789913 57771,6918.033,95.441,540.52,539.277,0.0
